{"fetched_at":"2026-07-16T06:42:35.236Z","source":"https://celestrak.org/NORAD/elements/gp.php?GROUP=planet&FORMAT=JSON","constellation":"pelican","records":[{"OBJECT_NAME":"PELICAN-1","OBJECT_ID":"2023-174AS","EPOCH":"2026-07-15T19:40:58.984032","CLASSIFICATION_TYPE":"U","MEAN_MOTION":15.71950305,"ECCENTRICITY":0.000464,"INCLINATION":97.4016,"RA_OF_ASC_NODE":298.9395,"ARG_OF_PERICENTER":194.9237,"MEAN_ANOMALY":165.189,"EPHEMERIS_TYPE":0,"NORAD_CAT_ID":58296,"ELEMENT_SET_NO":999,"REV_AT_EPOCH":15066,"BSTAR":0.000050091985,"MEAN_MOTION_DOT":0.00006388,"MEAN_MOTION_DDOT":0},{"OBJECT_NAME":"PELICAN-2","OBJECT_ID":"2025-009Y","EPOCH":"2026-07-15T05:36:40.958496","CLASSIFICATION_TYPE":"U","MEAN_MOTION":15.40619363,"ECCENTRICITY":0.00022725,"INCLINATION":97.2068,"RA_OF_ASC_NODE":286.7872,"ARG_OF_PERICENTER":118.9326,"MEAN_ANOMALY":241.2149,"EPHEMERIS_TYPE":0,"NORAD_CAT_ID":62631,"ELEMENT_SET_NO":999,"REV_AT_EPOCH":8387,"BSTAR":0.000001682499,"MEAN_MOTION_DOT":-1.2e-7,"MEAN_MOTION_DDOT":0},{"OBJECT_NAME":"PELICAN-3","OBJECT_ID":"2025-188A","EPOCH":"2026-07-15T18:00:07.195392","CLASSIFICATION_TYPE":"U","MEAN_MOTION":15.4133265,"ECCENTRICITY":0.00020991,"INCLINATION":97.1981,"RA_OF_ASC_NODE":272.4773,"ARG_OF_PERICENTER":111.9097,"MEAN_ANOMALY":248.2373,"EPHEMERIS_TYPE":0,"NORAD_CAT_ID":65315,"ELEMENT_SET_NO":999,"REV_AT_EPOCH":4971,"BSTAR":0.00011691318,"MEAN_MOTION_DOT":0.0000479,"MEAN_MOTION_DDOT":0},{"OBJECT_NAME":"PELICAN-4","OBJECT_ID":"2025-188B","EPOCH":"2026-07-15T18:28:21.717120","CLASSIFICATION_TYPE":"U","MEAN_MOTION":15.40411322,"ECCENTRICITY":0.00016601,"INCLINATION":97.1998,"RA_OF_ASC_NODE":272.6473,"ARG_OF_PERICENTER":81.217,"MEAN_ANOMALY":278.9265,"EPHEMERIS_TYPE":0,"NORAD_CAT_ID":65316,"ELEMENT_SET_NO":999,"REV_AT_EPOCH":4971,"BSTAR":0.00011967035,"MEAN_MOTION_DOT":0.00004756,"MEAN_MOTION_DDOT":0},{"OBJECT_NAME":"PELICAN-5","OBJECT_ID":"2025-276B","EPOCH":"2026-07-15T18:17:23.744832","CLASSIFICATION_TYPE":"U","MEAN_MOTION":15.32567743,"ECCENTRICITY":0.00016212,"INCLINATION":97.4125,"RA_OF_ASC_NODE":271.7338,"ARG_OF_PERICENTER":24.0993,"MEAN_ANOMALY":336.0325,"EPHEMERIS_TYPE":0,"NORAD_CAT_ID":66667,"ELEMENT_SET_NO":999,"REV_AT_EPOCH":3489,"BSTAR":0.00010479152,"MEAN_MOTION_DOT":0.00003216,"MEAN_MOTION_DDOT":0},{"OBJECT_NAME":"PELICAN-6","OBJECT_ID":"2025-276AP","EPOCH":"2026-07-15T02:37:06.854304","CLASSIFICATION_TYPE":"U","MEAN_MOTION":15.31319161,"ECCENTRICITY":0.0002555,"INCLINATION":97.3749,"RA_OF_ASC_NODE":271.0881,"ARG_OF_PERICENTER":36.34,"MEAN_ANOMALY":323.8015,"EPHEMERIS_TYPE":0,"NORAD_CAT_ID":66703,"ELEMENT_SET_NO":999,"REV_AT_EPOCH":3480,"BSTAR":0.0003233,"MEAN_MOTION_DOT":0.00009706,"MEAN_MOTION_DDOT":0},{"OBJECT_NAME":"PELICAN-7","OBJECT_ID":"2026-100AP","EPOCH":"2026-07-15T15:41:50.926560","CLASSIFICATION_TYPE":"U","MEAN_MOTION":15.23604163,"ECCENTRICITY":0.00032167,"INCLINATION":97.3846,"RA_OF_ASC_NODE":94.0971,"ARG_OF_PERICENTER":100.0676,"MEAN_ANOMALY":260.0924,"EPHEMERIS_TYPE":0,"NORAD_CAT_ID":69017,"ELEMENT_SET_NO":999,"REV_AT_EPOCH":1114,"BSTAR":0.000028931609,"MEAN_MOTION_DOT":0.00000623,"MEAN_MOTION_DDOT":0},{"OBJECT_NAME":"PELICAN-9","OBJECT_ID":"2026-100AR","EPOCH":"2026-07-15T07:15:57.764160","CLASSIFICATION_TYPE":"U","MEAN_MOTION":15.22484839,"ECCENTRICITY":0.00014458,"INCLINATION":97.366,"RA_OF_ASC_NODE":93.5776,"ARG_OF_PERICENTER":76.1982,"MEAN_ANOMALY":283.9415,"EPHEMERIS_TYPE":0,"NORAD_CAT_ID":69019,"ELEMENT_SET_NO":999,"REV_AT_EPOCH":1108,"BSTAR":0.000051712608,"MEAN_MOTION_DOT":0.00001129,"MEAN_MOTION_DDOT":0}]}
