PELICAN-1               
1 58296U 23174AS  26196.82012713  .00006388  00000+0  50092-4 0  9999
2 58296  97.4016 298.9395 0004640 194.9237 165.1890 15.71950305150667
PELICAN-2               
1 62631U 25009Y   26196.23380739 -.00000012  00000+0  16825-5 0  9993
2 62631  97.2068 286.7872 0002272 118.9326 241.2149 15.40619363 83872
PELICAN-3               
1 65315U 25188A   26196.75008328  .00004790  00000+0  11691-3 0  9991
2 65315  97.1981 272.4773 0002099 111.9097 248.2373 15.41332650 49717
PELICAN-4               
1 65316U 25188B   26196.76969580  .00004756  00000+0  11967-3 0  9997
2 65316  97.1998 272.6473 0001660  81.2170 278.9265 15.40411322 49712
PELICAN-5               
1 66667U 25276B   26196.76208038  .00003216  00000+0  10479-3 0  9996
2 66667  97.4125 271.7338 0001621  24.0993 336.0325 15.32567743 34898
PELICAN-6               
1 66703U 25276AP  26196.10910711  .00009706  00000+0  32330-3 0  9993
2 66703  97.3749 271.0881 0002555  36.3400 323.8015 15.31319161 34801
PELICAN-7               
1 69017U 26100AP  26196.65406165  .00000623  00000+0  28932-4 0  9997
2 69017  97.3846  94.0971 0003216 100.0676 260.0924 15.23604163 11145
PELICAN-9               
1 69019U 26100AR  26196.30275190  .00001129  00000+0  51713-4 0  9998
2 69019  97.3660  93.5776 0001445  76.1982 283.9415 15.22484839 11080
